[
  {
    "CCSDS_OMM_VERS": "3.0",
    "COMMENT": "GENERATED VIA SPACE-TRACK.ORG API",
    "CREATION_DATE": "2014-04-03T14:26:36",
    "ORIGINATOR": "18 SPCS",
    "OBJECT_NAME": "IRIDIUM 33 DEB",
    "OBJECT_ID": "1997-051TC",
    "CENTER_NAME": "EARTH",
    "REF_FRAME": "TEME",
    "TIME_SYSTEM": "UTC",
    "MEAN_ELEMENT_THEORY": "SGP4",
    "EPOCH": "2014-03-20T15:02:42.518399",
    "MEAN_MOTION": "15.25243210",
    "ECCENTRICITY": "0.00237940",
    "INCLINATION": "86.3837",
    "RA_OF_ASC_NODE": "40.4660",
    "ARG_OF_PERICENTER": "210.3865",
    "MEAN_ANOMALY": "149.5878",
    "EPHEMERIS_TYPE": "0",
    "CLASSIFICATION_TYPE": "U",
    "NORAD_CAT_ID": "35852",
    "ELEMENT_SET_NO": "999",
    "REV_AT_EPOCH": "24537",
    "BSTAR": "0.69086000000000",
    "MEAN_MOTION_DOT": "0.17471163",
    "MEAN_MOTION_DDOT": "0.0000000000000",
    "SEMIMAJOR_AXIS": "6868.196",
    "PERIOD": "94.411",
    "APOAPSIS": "506.403",
    "PERIAPSIS": "473.719",
    "OBJECT_TYPE": "DEBRIS",
    "RCS_SIZE": "SMALL",
    "COUNTRY_CODE": "US",
    "LAUNCH_DATE": "1997-09-14",
    "SITE": "TTMTR",
    "DECAY_DATE": "2014-03-29",
    "FILE": "1659912",
    "GP_ID": "95583783",
    "TLE_LINE0": "0 IRIDIUM 33 DEB",
    "TLE_LINE1": "1 35852U 97051TC  14079.62688100  .17471163  00000-0  69086+0 0  9995",
    "TLE_LINE2": "2 35852 086.3837 040.4660 0023794 210.3865 149.5878 15.25243210245378"
  },
  {
    "CCSDS_OMM_VERS": "3.0",
    "COMMENT": "GENERATED VIA SPACE-TRACK.ORG API",
    "CREATION_DATE": "2023-03-23T19:40:04",
    "ORIGINATOR": "18 SPCS",
    "OBJECT_NAME": "IRIDIUM 33 DEB",
    "OBJECT_ID": "1997-051TD",
    "CENTER_NAME": "EARTH",
    "REF_FRAME": "TEME",
    "TIME_SYSTEM": "UTC",
    "MEAN_ELEMENT_THEORY": "SGP4",
    "EPOCH": "2023-03-23T05:11:15.747936",
    "MEAN_MOTION": "15.01428415",
    "ECCENTRICITY": "0.00270760",
    "INCLINATION": "86.2852",
    "RA_OF_ASC_NODE": "53.1795",
    "ARG_OF_PERICENTER": "30.3801",
    "MEAN_ANOMALY": "329.8994",
    "EPHEMERIS_TYPE": "0",
    "CLASSIFICATION_TYPE": "U",
    "NORAD_CAT_ID": "35853",
    "ELEMENT_SET_NO": "999",
    "REV_AT_EPOCH": "71617",
    "BSTAR": "0.02039400000000",
    "MEAN_MOTION_DOT": "0.00275078",
    "MEAN_MOTION_DDOT": "0.0000000000000",
    "SEMIMAJOR_AXIS": "6940.628",
    "PERIOD": "95.909",
    "APOAPSIS": "581.285",
    "PERIAPSIS": "543.700",
    "OBJECT_TYPE": "DEBRIS",
    "RCS_SIZE": "SMALL",
    "COUNTRY_CODE": "US",
    "LAUNCH_DATE": "1997-09-14",
    "SITE": "TTMTR",
    "DECAY_DATE": "2023-04-27",
    "FILE": "3868494",
    "GP_ID": "228696543",
    "TLE_LINE0": "0 IRIDIUM 33 DEB",
    "TLE_LINE1": "1 35853U 97051TD  23082.21615449  .00275078  00000-0  20394-1 0  9991",
    "TLE_LINE2": "2 35853  86.2852  53.1795 0027076  30.3801 329.8994 15.01428415716171"
  },
  {
    "CCSDS_OMM_VERS": "3.0",
    "COMMENT": "GENERATED VIA SPACE-TRACK.ORG API",
    "CREATION_DATE": "2019-04-03T04:44:41",
    "ORIGINATOR": "18 SPCS",
    "OBJECT_NAME": "IRIDIUM 33 DEB",
    "OBJECT_ID": "1997-051TE",
    "CENTER_NAME": "EARTH",
    "REF_FRAME": "TEME",
    "TIME_SYSTEM": "UTC",
    "MEAN_ELEMENT_THEORY": "SGP4",
    "EPOCH": "2017-05-07T14:16:51.257280",
    "MEAN_MOTION": "14.79806205",
    "ECCENTRICITY": "0.00162320",
    "INCLINATION": "86.3226",
    "RA_OF_ASC_NODE": "239.7678",
    "ARG_OF_PERICENTER": "253.2779",
    "MEAN_ANOMALY": "123.1510",
    "EPHEMERIS_TYPE": "0",
    "CLASSIFICATION_TYPE": "U",
    "NORAD_CAT_ID": "35854",
    "ELEMENT_SET_NO": "999",
    "REV_AT_EPOCH": "42042",
    "BSTAR": "0.00267170000000",
    "MEAN_MOTION_DOT": "0.00020217",
    "MEAN_MOTION_DDOT": "0.0000000000000",
    "SEMIMAJOR_AXIS": "7008.072",
    "PERIOD": "97.310",
    "APOAPSIS": "641.313",
    "PERIAPSIS": "618.562",
    "OBJECT_TYPE": "DEBRIS",
    "RCS_SIZE": "SMALL",
    "COUNTRY_CODE": "US",
    "LAUNCH_DATE": "1997-09-14",
    "SITE": "TTMTR",
    "DECAY_DATE": "2022-08-09",
    "FILE": "2436542",
    "GP_ID": "128277910",
    "TLE_LINE0": "0 IRIDIUM 33 DEB",
    "TLE_LINE1": "1 35854U 97051TE  17127.59503770 +.00020217 +00000-0 +26717-2 0  9998",
    "TLE_LINE2": "2 35854 086.3226 239.7678 0016232 253.2779 123.1510 14.79806205420422"
  },
  {
    "CCSDS_OMM_VERS": "3.0",
    "COMMENT": "GENERATED VIA SPACE-TRACK.ORG API",
    "CREATION_DATE": "2018-06-28T11:49:47",
    "ORIGINATOR": "18 SPCS",
    "OBJECT_NAME": "IRIDIUM 33 DEB",
    "OBJECT_ID": "1997-051TF",
    "CENTER_NAME": "EARTH",
    "REF_FRAME": "TEME",
    "TIME_SYSTEM": "UTC",
    "MEAN_ELEMENT_THEORY": "SGP4",
    "EPOCH": "2011-03-22T23:10:44.723424",
    "MEAN_MOTION": "14.30309863",
    "ECCENTRICITY": "0.00653070",
    "INCLINATION": "86.4098",
    "RA_OF_ASC_NODE": "167.9256",
    "ARG_OF_PERICENTER": "120.1283",
    "MEAN_ANOMALY": "245.8170",
    "EPHEMERIS_TYPE": "0",
    "CLASSIFICATION_TYPE": "U",
    "NORAD_CAT_ID": "35855",
    "ELEMENT_SET_NO": "999",
    "REV_AT_EPOCH": "8233",
    "BSTAR": "0.00458520000000",
    "MEAN_MOTION_DOT": "0.00012207",
    "MEAN_MOTION_DDOT": "0.0000000000000",
    "SEMIMAJOR_AXIS": "7168.832",
    "PERIOD": "100.677",
    "APOAPSIS": "837.514",
    "PERIAPSIS": "743.879",
    "OBJECT_TYPE": "DEBRIS",
    "RCS_SIZE": "SMALL",
    "COUNTRY_CODE": "US",
    "LAUNCH_DATE": "1997-09-14",
    "SITE": "TTMTR",
    "DECAY_DATE": "2018-06-07",
    "FILE": "2301946",
    "GP_ID": "121390105",
    "TLE_LINE0": "0 IRIDIUM 33 DEB",
    "TLE_LINE1": "1 35855U 97051TF  11081.96579541  .00012207  00000-0  45852-2 0  9993",
    "TLE_LINE2": "2 35855  86.4098 167.9256 0065307 120.1283 245.8170 14.30309863 82337"
  },
  {
    "CCSDS_OMM_VERS": "3.0",
    "COMMENT": "GENERATED VIA SPACE-TRACK.ORG API",
    "CREATION_DATE": "2023-03-24T21:00:36",
    "ORIGINATOR": "18 SPCS",
    "OBJECT_NAME": "IRIDIUM 33 DEB",
    "OBJECT_ID": "1997-051TG",
    "CENTER_NAME": "EARTH",
    "REF_FRAME": "TEME",
    "TIME_SYSTEM": "UTC",
    "MEAN_ELEMENT_THEORY": "SGP4",
    "EPOCH": "2023-03-24T03:15:42.515136",
    "MEAN_MOTION": "15.65845103",
    "ECCENTRICITY": "0.00105620",
    "INCLINATION": "86.3229",
    "RA_OF_ASC_NODE": "30.7367",
    "ARG_OF_PERICENTER": "179.4276",
    "MEAN_ANOMALY": "180.7006",
    "EPHEMERIS_TYPE": "0",
    "CLASSIFICATION_TYPE": "U",
    "NORAD_CAT_ID": "35856",
    "ELEMENT_SET_NO": "999",
    "REV_AT_EPOCH": "55999",
    "BSTAR": "0.04726400000000",
    "MEAN_MOTION_DOT": "0.05783050",
    "MEAN_MOTION_DDOT": "0.0000000000000",
    "SEMIMAJOR_AXIS": "6748.946",
    "PERIOD": "91.963",
    "APOAPSIS": "377.940",
    "PERIAPSIS": "363.683",
    "OBJECT_TYPE": "DEBRIS",
    "RCS_SIZE": "SMALL",
    "COUNTRY_CODE": "US",
    "LAUNCH_DATE": "1997-09-14",
    "SITE": "TTMTR",
    "DECAY_DATE": "2023-04-01",
    "FILE": "3869846",
    "GP_ID": "228782013",
    "TLE_LINE0": "0 IRIDIUM 33 DEB",
    "TLE_LINE1": "1 35856U 97051TG  23083.13590874  .05783050  00000-0  47264-1 0  9994",
    "TLE_LINE2": "2 35856  86.3229  30.7367 0010562 179.4276 180.7006 15.65845103559992"
  },
  {
    "CCSDS_OMM_VERS": "3.0",
    "COMMENT": "GENERATED VIA SPACE-TRACK.ORG API",
    "CREATION_DATE": "2024-04-05T06:56:18",
    "ORIGINATOR": "18 SPCS",
    "OBJECT_NAME": "IRIDIUM 33 DEB",
    "OBJECT_ID": "1997-051TH",
    "CENTER_NAME": "EARTH",
    "REF_FRAME": "TEME",
    "TIME_SYSTEM": "UTC",
    "MEAN_ELEMENT_THEORY": "SGP4",
    "EPOCH": "2024-04-04T21:31:18.220224",
    "MEAN_MOTION": "15.97827551",
    "ECCENTRICITY": "0.00186740",
    "INCLINATION": "86.3927",
    "RA_OF_ASC_NODE": "258.2580",
    "ARG_OF_PERICENTER": "282.8343",
    "MEAN_ANOMALY": "77.0855",
    "EPHEMERIS_TYPE": "0",
    "CLASSIFICATION_TYPE": "U",
    "NORAD_CAT_ID": "35857",
    "ELEMENT_SET_NO": "999",
    "REV_AT_EPOCH": "79097",
    "BSTAR": "0.01013700000000",
    "MEAN_MOTION_DOT": "0.03811848",
    "MEAN_MOTION_DDOT": "0.0193020000000",
    "SEMIMAJOR_AXIS": "6658.584",
    "PERIOD": "90.122",
    "APOAPSIS": "292.884",
    "PERIAPSIS": "268.015",
    "OBJECT_TYPE": "DEBRIS",
    "RCS_SIZE": "SMALL",
    "COUNTRY_CODE": "US",
    "LAUNCH_DATE": "1997-09-14",
    "SITE": "TTMTR",
    "DECAY_DATE": "2024-04-11",
    "FILE": "4264180",
    "GP_ID": "253719332",
    "TLE_LINE0": "0 IRIDIUM 33 DEB",
    "TLE_LINE1": "1 35857U 97051TH  24095.89673866  .03811848  19302-1  10137-1 0  9995",
    "TLE_LINE2": "2 35857  86.3927 258.2580 0018674 282.8343  77.0855 15.97827551790975"
  },
  {
    "CCSDS_OMM_VERS": "3.0",
    "COMMENT": "GENERATED VIA SPACE-TRACK.ORG API",
    "CREATION_DATE": "2022-10-26T19:25:05",
    "ORIGINATOR": "18 SPCS",
    "OBJECT_NAME": "IRIDIUM 33 DEB",
    "OBJECT_ID": "1997-051TJ",
    "CENTER_NAME": "EARTH",
    "REF_FRAME": "TEME",
    "TIME_SYSTEM": "UTC",
    "MEAN_ELEMENT_THEORY": "SGP4",
    "EPOCH": "2022-10-26T12:24:04.204512",
    "MEAN_MOTION": "14.79039345",
    "ECCENTRICITY": "0.00316550",
    "INCLINATION": "86.3535",
    "RA_OF_ASC_NODE": "136.6769",
    "ARG_OF_PERICENTER": "248.4604",
    "MEAN_ANOMALY": "111.3241",
    "EPHEMERIS_TYPE": "0",
    "CLASSIFICATION_TYPE": "U",
    "NORAD_CAT_ID": "35858",
    "ELEMENT_SET_NO": "999",
    "REV_AT_EPOCH": "51973",
    "BSTAR": "0.00431300000000",
    "MEAN_MOTION_DOT": "0.00032288",
    "MEAN_MOTION_DDOT": "0.0000000000000",
    "SEMIMAJOR_AXIS": "7010.495",
    "PERIOD": "97.360",
    "APOAPSIS": "654.552",
    "PERIAPSIS": "610.168",
    "OBJECT_TYPE": "DEBRIS",
    "RCS_SIZE": "SMALL",
    "COUNTRY_CODE": "US",
    "LAUNCH_DATE": "1997-09-14",
    "SITE": "TTMTR",
    "DECAY_DATE": "2023-03-04",
    "FILE": "3634846",
    "GP_ID": "216199373",
    "TLE_LINE0": "0 IRIDIUM 33 DEB",
    "TLE_LINE1": "1 35858U 97051TJ  22299.51671533  .00032288  00000-0  43130-2 0  9992",
    "TLE_LINE2": "2 35858  86.3535 136.6769 0031655 248.4604 111.3241 14.79039345519730"
  }
]